{
  "type": "FeatureCollection",
  "features": [
    {
      "type": "Feature",
      "properties": {
        "id": "zee-indonesia-aceh",
        "name": "ZEE Indonesia - Kawasan Aceh",
        "description": "Area of Interest (AOI) ZEE Indonesia di kawasan perairan Aceh untuk analisis Global Fishing Watch",
        "legal_basis": "UNCLOS 1982 Art. 57, Deklarasi ZEE Indonesia 1980, UU No. 5/1983",
        "source": "BIG",
        "source_url": "https://www.marineregions.org/eezdetails.php?mrgid=8492&zone=eez",
        "crs": "EPSG:4326",
        "disclaimer": "AOI analisis geografis ZEE Indonesia di kawasan Aceh, bukan batas administratif daerah.",
        "created_at": "2026-09-21T03:42:00Z"
      },
      "geometry": {
        "type": "Polygon",
        "coordinates": [
          [
            [94.5, 1.8],
            [94.5, 6.2],
            [98.3, 6.2],
            [98.3, 3.8],
            [97.8, 1.8],
            [94.5, 1.8]
          ]
        ]
      }
    }
  ]
}
