{
    "type": "FeatureCollection",
    "features": [
        {
            "type": "Feature",
            "properties": {
                "name": "Zona Observasi GFW +100 NM",
                "label": "Zona Observasi GFW +100 NM",
                "type": "observation_zone",
                "buffer_distance_meters": 185200,
                "buffer_distance_km": 185.2,
                "buffer_distance_nm": 100,
                "crs": "EPSG:4326",
                "disclaimer": "Zona Observasi GFW +100 NM merupakan zona pengamatan teknis satelit AIS\/VMS, bukan merupakan batas hukum atau yurisdiksi ZEE."
            },
            "geometry": {
                "type": "Polygon",
                "coordinates": [
                    [
                        [
                            94.498495,
                            0.136321
                        ],
                        [
                            94.174183,
                            0.168524
                        ],
                        [
                            93.862364,
                            0.263313
                        ],
                        [
                            93.574992,
                            0.417049
                        ],
                        [
                            93.323081,
                            0.623836
                        ],
                        [
                            93.116285,
                            0.875743
                        ],
                        [
                            92.962531,
                            1.163113
                        ],
                        [
                            92.867718,
                            1.474931
                        ],
                        [
                            92.835499,
                            1.799241
                        ],
                        [
                            92.826537,
                            6.197376
                        ],
                        [
                            92.857521,
                            6.521267
                        ],
                        [
                            92.95142,
                            6.832965
                        ],
                        [
                            93.104757,
                            7.120521
                        ],
                        [
                            93.311752,
                            7.372887
                        ],
                        [
                            93.564528,
                            7.580348
                        ],
                        [
                            93.853403,
                            7.734901
                        ],
                        [
                            94.16726,
                            7.830575
                        ],
                        [
                            94.493984,
                            7.863669
                        ],
                        [
                            98.293984,
                            7.863669
                        ],
                        [
                            98.622416,
                            7.832617
                        ],
                        [
                            98.938267,
                            7.738333
                        ],
                        [
                            99.229232,
                            7.584499
                        ],
                        [
                            99.484009,
                            7.377112
                        ],
                        [
                            99.692751,
                            7.124245
                        ],
                        [
                            99.84744,
                            6.835722
                        ],
                        [
                            99.942191,
                            6.52273
                        ],
                        [
                            99.973463,
                            6.197376
                        ],
                        [
                            99.967344,
                            3.798396
                        ],
                        [
                            99.966464,
                            3.747478
                        ],
                        [
                            99.964024,
                            3.696611
                        ],
                        [
                            99.960026,
                            3.645842
                        ],
                        [
                            99.954474,
                            3.595219
                        ],
                        [
                            99.947373,
                            3.54479
                        ],
                        [
                            99.93873,
                            3.4946
                        ],
                        [
                            99.928554,
                            3.444698
                        ],
                        [
                            99.916854,
                            3.39513
                        ],
                        [
                            99.414494,
                            1.395925
                        ],
                        [
                            99.325549,
                            1.135105
                        ],
                        [
                            99.194792,
                            0.892531
                        ],
                        [
                            99.025812,
                            0.674849
                        ],
                        [
                            98.823239,
                            0.488026
                        ],
                        [
                            98.592623,
                            0.337183
                        ],
                        [
                            98.340282,
                            0.226458
                        ],
                        [
                            98.073132,
                            0.158886
                        ],
                        [
                            97.798495,
                            0.136321
                        ],
                        [
                            94.498495,
                            0.136321
                        ]
                    ]
                ]
            }
        }
    ]
}